[{"OBJECT_NAME":"EOSSAT-1","OBJECT_ID":"2023-001AW","EPOCH":"2026-03-09T17:40:07.010400","MEAN_MOTION":15.32339828,"ECCENTRICITY":0.00112629,"INCLINATION":97.3357,"RA_OF_ASC_NODE":130.2294,"ARG_OF_PERICENTER":110.3168,"MEAN_ANOMALY":249.9285,"EPHEMERIS_TYPE":0,"CLASSIFICATION_TYPE":"U","NORAD_CAT_ID":55053,"ELEMENT_SET_NO":999,"REV_AT_EPOCH":17668,"BSTAR":0.00024844399,"MEAN_MOTION_DOT":7.695e-5,"MEAN_MOTION_DDOT":0},{"OBJECT_NAME":"STARLINK-33815","OBJECT_ID":"2025-071E","EPOCH":"2026-03-09T11:20:10.746240","MEAN_MOTION":15.30192762,"ECCENTRICITY":0.00011621,"INCLINATION":53.1584,"RA_OF_ASC_NODE":141.1464,"ARG_OF_PERICENTER":71.7777,"MEAN_ANOMALY":288.335,"EPHEMERIS_TYPE":0,"CLASSIFICATION_TYPE":"U","NORAD_CAT_ID":63497,"ELEMENT_SET_NO":999,"REV_AT_EPOCH":5273,"BSTAR":0.00063531384,"MEAN_MOTION_DOT":0.000185,"MEAN_MOTION_DDOT":0}]
